{
"type": "FeatureCollection",
"name": "boundary",
"crs": { "type": "name", "properties": { "name": "urn:ogc:def:crs:OGC:1.3:CRS84" } },
"features": [
{ "type": "Feature", "properties": { "fid": 1, "Layer": "0", "PaperSpace": null, "SubClasses": "AcDbEntity:AcDbPolyline", "Linetype": null, "EntityHand": "2A3", "Text": null }, "geometry": { "type": "MultiPolygon", "coordinates": [ [ [ [ 7.692695923879691, 8.573960377948803 ], [ 7.694216683086902, 8.575752274741651 ], [ 7.697129801554553, 8.576896867546893 ], [ 7.698475991839544, 8.578762541583451 ], [ 7.699252393734054, 8.579827618696367 ], [ 7.700568723954779, 8.581644391154882 ], [ 7.70309904068776, 8.585142073052532 ], [ 7.704051283230943, 8.587294485535697 ], [ 7.704921927748446, 8.589363535103642 ], [ 7.705868810935521, 8.59148065968483 ], [ 7.706785639882828, 8.593632091215312 ], [ 7.709507816178933, 8.599752632053978 ], [ 7.710459058855323, 8.60198009183368 ], [ 7.711827575308951, 8.606303687373895 ], [ 7.712195755991753, 8.607529787619091 ], [ 7.712888055382084, 8.609761225294607 ], [ 7.71345846745068, 8.611624373006906 ], [ 7.717033449197913, 8.610980560984185 ], [ 7.719723083169777, 8.610500413097519 ], [ 7.721943658232502, 8.610117871349908 ], [ 7.724635977377845, 8.609650356589928 ], [ 7.728725387578431, 8.608926992167559 ], [ 7.732323953630933, 8.608285794264082 ], [ 7.73590518863235, 8.607670765301627 ], [ 7.738045737455262, 8.607307857203653 ], [ 7.741678747356341, 8.606697390923404 ], [ 7.746567773487838, 8.605936516695001 ], [ 7.746774240152698, 8.605832017019171 ], [ 7.748496709621983, 8.605517974772951 ], [ 7.748592760594812, 8.602886596846643 ], [ 7.744592382246309, 8.596878516144175 ], [ 7.744566054822329, 8.596615029148166 ], [ 7.747527431121632, 8.594101238522033 ], [ 7.748010802214479, 8.593587953023428 ], [ 7.748934351091036, 8.591550805080514 ], [ 7.749134733854368, 8.588350745819572 ], [ 7.74742401733118, 8.586986999467884 ], [ 7.747175976726244, 8.586789331802017 ], [ 7.744735025762059, 8.584843351748663 ], [ 7.743996892935647, 8.585606680866205 ], [ 7.74316148177569, 8.584890839082036 ], [ 7.742156138057984, 8.584165317035923 ], [ 7.742216571265794, 8.583159703041886 ], [ 7.742792686083778, 8.582741154378644 ], [ 7.742046753332611, 8.581993996963865 ], [ 7.738600283773016, 8.578479366615106 ], [ 7.736333071577416, 8.579107005192306 ], [ 7.736228406850228, 8.577518002435816 ], [ 7.736353941392395, 8.576660713413718 ], [ 7.736471818896901, 8.576511886929634 ], [ 7.736618191021043, 8.575650153322341 ], [ 7.736499426673837, 8.575415817544265 ], [ 7.735832112680197, 8.574555163844778 ], [ 7.733214707256436, 8.571425849301798 ], [ 7.734002351628248, 8.570871255405971 ], [ 7.732755215356058, 8.569081826591127 ], [ 7.732413576944272, 8.568467605973618 ], [ 7.731988969847273, 8.568259910663757 ], [ 7.732134423378193, 8.568145675513334 ], [ 7.730429644765345, 8.566552079353974 ], [ 7.728913477020722, 8.565778091518011 ], [ 7.728804596764048, 8.565641914170255 ], [ 7.728030341511743, 8.56500135367896 ], [ 7.727397114688688, 8.564578138329379 ], [ 7.726572177191598, 8.564814567028817 ], [ 7.726454287118079, 8.564443002479264 ], [ 7.726326623928629, 8.564278285830634 ], [ 7.725952390097447, 8.564303856195972 ], [ 7.725834020652607, 8.564325015777852 ], [ 7.725668863417744, 8.564353988059658 ], [ 7.725203064778881, 8.564440685830698 ], [ 7.725120000052113, 8.56445381376358 ], [ 7.724824515576953, 8.564474379663899 ], [ 7.724740594292859, 8.564469174234111 ], [ 7.724106904553886, 8.564339131242264 ], [ 7.723670879699609, 8.564193706622348 ], [ 7.723446748832391, 8.564119536076598 ], [ 7.72326554151312, 8.563910411763473 ], [ 7.72314701786809, 8.563778948962817 ], [ 7.722889291466926, 8.563328472625868 ], [ 7.722803789289028, 8.563203530451096 ], [ 7.722574307411378, 8.562854457591563 ], [ 7.722492160671407, 8.56271505744515 ], [ 7.722285940576693, 8.562326913628571 ], [ 7.722012497218896, 8.561882308265368 ], [ 7.721901294790412, 8.561735242886527 ], [ 7.721710584781956, 8.561453063374055 ], [ 7.721664207073884, 8.561411610026742 ], [ 7.721115987318981, 8.560555256998528 ], [ 7.72079790457185, 8.560153431210603 ], [ 7.720290630393727, 8.559390908821587 ], [ 7.719171258865659, 8.557584762756083 ], [ 7.719041198107265, 8.557326250208193 ], [ 7.718717298400935, 8.556853189457193 ], [ 7.718779135347193, 8.556544878979407 ], [ 7.719335625702724, 8.556037892103964 ], [ 7.718878423696673, 8.555607806301177 ], [ 7.7182125226329, 8.55608759905361 ], [ 7.716392900580032, 8.557368048415718 ], [ 7.713477121983372, 8.559447680306098 ], [ 7.713198572751915, 8.559639823771292 ], [ 7.711887467448964, 8.560531213748513 ], [ 7.710611926674642, 8.561408510267501 ], [ 7.707820497587377, 8.563394999365883 ], [ 7.706396444571372, 8.564387054676439 ], [ 7.705586855276486, 8.564951254478633 ], [ 7.705027812296051, 8.565449264666787 ], [ 7.702944237648477, 8.566862879275567 ], [ 7.702819017550818, 8.566945501362483 ], [ 7.699376222844664, 8.569285446730861 ], [ 7.697904965550717, 8.570317826987711 ], [ 7.695897800388889, 8.571716234783587 ], [ 7.694065299204275, 8.573004669642863 ], [ 7.692695923879691, 8.573960377948803 ] ] ] ] } }
]
}
