{
"type": "FeatureCollection",
"name": "roads",
"crs": { "type": "name", "properties": { "name": "urn:ogc:def:crs:OGC:1.3:CRS84" } },
"features": [
{ "type": "Feature", "properties": { "fid": 5, "Road_ID": 5, "Road_Name": "Foot path", "Class": "service", "Surface_Type": "Dirt/Gravel", "Length_Meters": 81.488, "Ownership": "Polytechnic" }, "geometry": { "type": "MultiLineString", "coordinates": [ [ [ 7.7182128, 8.5650163 ], [ 7.7175227, 8.5652828 ] ] ] } },
{ "type": "Feature", "properties": { "fid": 6, "Road_ID": 6, "Road_Name": "Foot path", "Class": "service", "Surface_Type": "Dirt/Gravel", "Length_Meters": 86.276, "Ownership": "Polytechnic" }, "geometry": { "type": "MultiLineString", "coordinates": [ [ [ 7.7181226, 8.5647597 ], [ 7.7173939, 8.5650468 ] ] ] } },
{ "type": "Feature", "properties": { "fid": 7, "Road_ID": 7, "Road_Name": "Foot path", "Class": "service", "Surface_Type": "Dirt/Gravel", "Length_Meters": 97.493, "Ownership": "Polytechnic" }, "geometry": { "type": "MultiLineString", "coordinates": [ [ [ 7.7179543, 8.5642811 ], [ 7.7181226, 8.5647597 ], [ 7.7182128, 8.5650163 ], [ 7.7182469, 8.5651131 ] ] ] } },
{ "type": "Feature", "properties": { "fid": 8, "Road_ID": 8, "Road_Name": "Foot path", "Class": "service", "Surface_Type": "Dirt/Gravel", "Length_Meters": 46.678, "Ownership": "Polytechnic" }, "geometry": { "type": "MultiLineString", "coordinates": [ [ [ 7.7114213, 8.5658198 ], [ 7.7118444, 8.5657921 ] ] ] } },
{ "type": "Feature", "properties": { "fid": 9, "Road_ID": 9, "Road_Name": "Foot path", "Class": "service", "Surface_Type": "Dirt/Gravel", "Length_Meters": 296.142, "Ownership": "Polytechnic" }, "geometry": { "type": "MultiLineString", "coordinates": [ [ [ 7.7114126, 8.5656833 ], [ 7.7114213, 8.5658198 ], [ 7.7114367, 8.5660613 ], [ 7.7114421, 8.5661382 ], [ 7.7114448, 8.5662164 ], [ 7.7114528, 8.566239 ], [ 7.711477, 8.5662483 ], [ 7.7123085, 8.5661342 ], [ 7.7125177, 8.566121 ], [ 7.7130085, 8.5660971 ], [ 7.7135691, 8.566044 ] ] ] } },
{ "type": "Feature", "properties": { "fid": 13, "Road_ID": 13, "Road_Name": "School of Engineering Raod", "Class": "service", "Surface_Type": "Asphalt", "Length_Meters": 539.804, "Ownership": "Polytechnic" }, "geometry": { "type": "MultiLineString", "coordinates": [ [ [ 7.7176273, 8.5689589 ], [ 7.7191454, 8.5688793 ], [ 7.7225277, 8.5687971 ] ] ] } },
{ "type": "Feature", "properties": { "fid": 14, "Road_ID": 14, "Road_Name": "School of Engineering Raod", "Class": "service", "Surface_Type": "Asphalt", "Length_Meters": 511.111, "Ownership": "Polytechnic" }, "geometry": { "type": "MultiLineString", "coordinates": [ [ [ 7.7190489, 8.564259 ], [ 7.7191454, 8.5688793 ] ] ] } },
{ "type": "Feature", "properties": { "fid": 15, "Road_ID": 15, "Road_Name": "Foot path", "Class": "service", "Surface_Type": "Dirt/Gravel", "Length_Meters": 34.162, "Ownership": "Polytechnic" }, "geometry": { "type": "MultiLineString", "coordinates": [ [ [ 7.7158356, 8.5717491 ], [ 7.7159804, 8.5720223 ] ] ] } },
{ "type": "Feature", "properties": { "fid": 16, "Road_ID": 16, "Road_Name": "Foot path", "Class": "service", "Surface_Type": "Dirt/Gravel", "Length_Meters": 45.567, "Ownership": "Polytechnic" }, "geometry": { "type": "MultiLineString", "coordinates": [ [ [ 7.7128209, 8.5732532 ], [ 7.7129737, 8.5736361 ] ] ] } },
{ "type": "Feature", "properties": { "fid": 17, "Road_ID": 17, "Road_Name": "Foot path", "Class": "service", "Surface_Type": "Dirt/Gravel", "Length_Meters": 85.795, "Ownership": "Polytechnic" }, "geometry": { "type": "MultiLineString", "coordinates": [ [ [ 7.7117574, 8.5737838 ], [ 7.71211, 8.5744756 ] ] ] } },
{ "type": "Feature", "properties": { "fid": 18, "Road_ID": 18, "Road_Name": "Agricultural Technology Road", "Class": "service", "Surface_Type": "Asphalt", "Length_Meters": 787.177, "Ownership": "Polytechnic" }, "geometry": { "type": "MultiLineString", "coordinates": [ [ [ 7.718161, 8.5706166 ], [ 7.7158356, 8.5717491 ], [ 7.7128209, 8.5732532 ], [ 7.7117574, 8.5737838 ] ] ] } },
{ "type": "Feature", "properties": { "fid": 20, "Road_ID": 20, "Road_Name": "Center Entrepreneurship Development Studies Complex Road", "Class": "service", "Surface_Type": "Dirt/Gravel", "Length_Meters": 353.366, "Ownership": "Polytechnic" }, "geometry": { "type": "MultiLineString", "coordinates": [ [ [ 7.7259368, 8.574327 ], [ 7.7261943, 8.5742528 ], [ 7.7265966, 8.5740565 ], [ 7.72753, 8.573412 ], [ 7.7286994, 8.5727251 ] ] ] } },
{ "type": "Feature", "properties": { "fid": 23, "Road_ID": 23, "Road_Name": "Foot path", "Class": "service", "Surface_Type": "Dirt/Gravel", "Length_Meters": 240.213, "Ownership": "Polytechnic" }, "geometry": { "type": "MultiLineString", "coordinates": [ [ [ 7.7161387, 8.5681844 ], [ 7.7168736, 8.5695305 ], [ 7.7170426, 8.569805 ], [ 7.7171177, 8.5699455 ], [ 7.7171848, 8.5700896 ] ] ] } },
{ "type": "Feature", "properties": { "fid": 24, "Road_ID": 24, "Road_Name": "Foot path", "Class": "service", "Surface_Type": "Dirt/Gravel", "Length_Meters": 99.935, "Ownership": "Polytechnic" }, "geometry": { "type": "MultiLineString", "coordinates": [ [ [ 7.7176907, 8.5691368 ], [ 7.7168736, 8.5695305 ] ] ] } },
{ "type": "Feature", "properties": { "fid": 26, "Road_ID": 26, "Road_Name": "Foot path", "Class": "service", "Surface_Type": "Dirt/Gravel", "Length_Meters": 398.074, "Ownership": "Polytechnic" }, "geometry": { "type": "MultiLineString", "coordinates": [ [ [ 7.7178142, 8.5694831 ], [ 7.7177426, 8.5695689 ], [ 7.7177078, 8.5696326 ], [ 7.7176702, 8.5697519 ], [ 7.717638, 8.569858 ], [ 7.7176112, 8.5698845 ], [ 7.7175736, 8.5699097 ], [ 7.7171848, 8.5700896 ], [ 7.7169259, 8.5702094 ], [ 7.7168521, 8.5702253 ], [ 7.716773, 8.570224 ], [ 7.7165866, 8.5702161 ], [ 7.7163613, 8.5702108 ], [ 7.716313, 8.5701988 ], [ 7.7162835, 8.5701829 ], [ 7.7162339, 8.5701232 ], [ 7.7155392, 8.5689722 ], [ 7.7153934, 8.5687146 ], [ 7.715382088071408, 8.568694603230057 ] ] ] } },
{ "type": "Feature", "properties": { "fid": 32, "Road_ID": 32, "Road_Name": "Foot path", "Class": "unclassified", "Surface_Type": "Dirt/Gravel", "Length_Meters": 402.209, "Ownership": "Polytechnic" }, "geometry": { "type": "MultiLineString", "coordinates": [ [ [ 7.71580653190865, 8.570205492350951 ], [ 7.71572197119525, 8.570167730054626 ], [ 7.715536483178762, 8.570032864680034 ], [ 7.715487383409692, 8.570005891599378 ], [ 7.715241884564339, 8.569930366963348 ], [ 7.715154596085992, 8.569763133787328 ], [ 7.714799986642704, 8.569061832570751 ], [ 7.714750886873634, 8.568932361435476 ], [ 7.714707242634461, 8.568840652687983 ], [ 7.714854541941672, 8.568689602938019 ], [ 7.714930919360224, 8.568619472676573 ], [ 7.714892730650948, 8.568274215816242 ], [ 7.714936374890123, 8.568204085478182 ], [ 7.715132773966404, 8.568026062254251 ], [ 7.715263706683926, 8.568144744412796 ], [ 7.715209833326193, 8.568279610457092 ], [ 7.715209833326193, 8.568392897897342 ], [ 7.715362588163302, 8.568705786842667 ] ] ] } },
{ "type": "Feature", "properties": { "fid": 33, "Road_ID": 33, "Road_Name": "Foot path", "Class": "unclassified", "Surface_Type": "Dirt/Gravel", "Length_Meters": 211.852, "Ownership": "Polytechnic" }, "geometry": { "type": "MultiLineString", "coordinates": [ [ [ 7.715263706683926, 8.568144744412796 ], [ 7.715643547952983, 8.568074614050861 ], [ 7.715769025140608, 8.568042246187145 ], [ 7.715992701866372, 8.567950537224984 ], [ 7.717036679528886, 8.567432355592844 ] ] ] } },
{ "type": "Feature", "properties": { "fid": 35, "Road_ID": 35, "Road_Name": "Foot path", "Class": "unclassified", "Surface_Type": "Dirt/Gravel", "Length_Meters": 269.768, "Ownership": "Polytechnic" }, "geometry": { "type": "MultiLineString", "coordinates": [ [ [ 7.715769025140608, 8.568042246187145 ], [ 7.716085445874615, 8.568635656584208 ], [ 7.71666373204367, 8.569579716670978 ], [ 7.716952193186959, 8.570175821975583 ] ] ] } },
{ "type": "Feature", "properties": { "fid": 36, "Road_ID": 36, "Road_Name": "Foot path", "Class": "unclassified", "Surface_Type": "Dirt/Gravel", "Length_Meters": 265.324, "Ownership": "Polytechnic" }, "geometry": { "type": "MultiLineString", "coordinates": [ [ [ 7.715643547952983, 8.568074614050859 ], [ 7.71573083643133, 8.568295794379193 ], [ 7.715752658550917, 8.568479212114868 ], [ 7.715769025140608, 8.568549342402186 ], [ 7.716687200007611, 8.570220401617679 ] ] ] } },
{ "type": "Feature", "properties": { "fid": 37, "Road_ID": 37, "Road_Name": "Foot path", "Class": "unclassified", "Surface_Type": "Dirt/Gravel", "Length_Meters": 215.868, "Ownership": "Polytechnic" }, "geometry": { "type": "MultiLineString", "coordinates": [ [ [ 7.71643349958949, 8.57143569600308 ], [ 7.716153639998325, 8.571257440526335 ], [ 7.716000885161218, 8.571111786337205 ], [ 7.715679008897311, 8.570744953317318 ], [ 7.715241884564339, 8.569930366963348 ] ] ] } },
{ "type": "Feature", "properties": { "fid": 38, "Road_ID": 38, "Road_Name": "Foot path", "Class": "unclassified", "Surface_Type": "Dirt/Gravel", "Length_Meters": 540.83, "Ownership": "Polytechnic" }, "geometry": { "type": "MultiLineString", "coordinates": [ [ [ 7.721449340329619, 8.570856467716895 ], [ 7.721385493169277, 8.570823175093905 ], [ 7.721189094092993, 8.570890607647 ], [ 7.721123627734234, 8.570987710502452 ], [ 7.721134538794028, 8.571257440526335 ], [ 7.721167271973406, 8.571365332482298 ], [ 7.721036339255885, 8.571753743270218 ], [ 7.721025428196091, 8.571883213444663 ], [ 7.720665363222909, 8.572023472750546 ], [ 7.720316209309517, 8.571850845905178 ], [ 7.720119810233237, 8.571063234928427 ], [ 7.720119810233237, 8.57080429397689 ], [ 7.72006525493427, 8.570318779217379 ], [ 7.72130911575072, 8.570243254643506 ] ] ] } },
{ "type": "Feature", "properties": { "fid": 39, "Road_ID": 39, "Road_Name": "Foot path", "Class": "unclassified", "Surface_Type": "Dirt/Gravel", "Length_Meters": 256.841, "Ownership": "Polytechnic" }, "geometry": { "type": "MultiLineString", "coordinates": [ [ [ 7.72006525493427, 8.570318779217379 ], [ 7.719857944798195, 8.570073324297431 ], [ 7.719615173717792, 8.569895301948657 ], [ 7.719353308282747, 8.569817079981174 ], [ 7.719045070843584, 8.569844053075229 ], [ 7.718644089396176, 8.569814382671661 ], [ 7.718594989627105, 8.569814382671662 ], [ 7.717952365848896, 8.57002125780059 ] ] ] } },
{ "type": "Feature", "properties": { "fid": 40, "Road_ID": 40, "Road_Name": "Foot path", "Class": "unclassified", "Surface_Type": "Dirt/Gravel", "Length_Meters": 162.647, "Ownership": "Polytechnic" }, "geometry": { "type": "MultiLineString", "coordinates": [ [ [ 7.719615173717792, 8.569895301948653 ], [ 7.719522429709547, 8.569722674136914 ], [ 7.718854127297199, 8.569363931714934 ], [ 7.718594989627105, 8.569814382671662 ] ] ] } },
{ "type": "Feature", "properties": { "fid": 41, "Road_ID": 41, "Road_Name": "Foot path", "Class": "unclassified", "Surface_Type": "Dirt/Gravel", "Length_Meters": 81.173, "Ownership": "Polytechnic" }, "geometry": { "type": "MultiLineString", "coordinates": [ [ [ 7.71840404608072, 8.57017042736163 ], [ 7.718660455985867, 8.570073324297431 ], [ 7.718739561169369, 8.57007062698974 ], [ 7.718971421189979, 8.569924972345914 ], [ 7.719045070843584, 8.569844053075229 ] ] ] } },
{ "type": "Feature", "properties": { "fid": 42, "Road_ID": 42, "Road_Name": "Foot path", "Class": "unclassified", "Surface_Type": "Dirt/Gravel", "Length_Meters": 28.695, "Ownership": "Polytechnic" }, "geometry": { "type": "MultiLineString", "coordinates": [ [ [ 7.718660455985867, 8.570073324297429 ], [ 7.718644089396176, 8.569814382671661 ] ] ] } },
{ "type": "Feature", "properties": { "fid": 44, "Road_ID": 44, "Road_Name": "Foot path", "Class": "unclassified", "Surface_Type": "Dirt/Gravel", "Length_Meters": 196.838, "Ownership": "Polytechnic" }, "geometry": { "type": "MultiLineString", "coordinates": [ [ [ 7.720316209309517, 8.571850845905177 ], [ 7.718610186481083, 8.572383778300779 ] ] ] } },
{ "type": "Feature", "properties": { "fid": 45, "Road_ID": 45, "Road_Name": "Foot path", "Class": "unclassified", "Surface_Type": "Dirt/Gravel", "Length_Meters": 276.553, "Ownership": "Polytechnic" }, "geometry": { "type": "MultiLineString", "coordinates": [ [ [ 7.717029252546746, 8.564298344698026 ], [ 7.716985608307572, 8.564417028019701 ], [ 7.716941964068399, 8.564524921916362 ], [ 7.716985608307572, 8.564934918444624 ], [ 7.717040163606539, 8.565237020866908 ], [ 7.716963786187985, 8.565474386887553 ], [ 7.716909230889016, 8.565884382392509 ], [ 7.716909230889016, 8.566164905378116 ], [ 7.716931053008605, 8.566488585489058 ], [ 7.716898319829223, 8.566574900138791 ], [ 7.716752384404489, 8.566678747425788 ] ] ] } },
{ "type": "Feature", "properties": { "fid": 46, "Road_ID": 46, "Road_Name": "Foot path", "Class": "unclassified", "Surface_Type": "Dirt/Gravel", "Length_Meters": 325.531, "Ownership": "Polytechnic" }, "geometry": { "type": "MultiLineString", "coordinates": [ [ [ 7.716985608307572, 8.564417028019701 ], [ 7.717325215043642, 8.565239718208886 ], [ 7.717477969880749, 8.565822343627365 ], [ 7.71737977034261, 8.566685490755134 ], [ 7.717162913029215, 8.566850027954086 ], [ 7.716886044886958, 8.566995683775724 ] ] ] } },
{ "type": "Feature", "properties": { "fid": 47, "Road_ID": 47, "Road_Name": "Foot path", "Class": "unclassified", "Surface_Type": "Dirt/Gravel", "Length_Meters": 685.819, "Ownership": "Polytechnic" }, "geometry": { "type": "MultiLineString", "coordinates": [ [ [ 7.719033822968221, 8.564248892387884 ], [ 7.718982332249765, 8.564104135546348 ], [ 7.718502245618856, 8.563780453406572 ], [ 7.718022158987945, 8.563294929680604 ], [ 7.717967603688978, 8.56320861428668 ], [ 7.717945781569392, 8.56298203628447 ], [ 7.71768391613435, 8.562830984208054 ], [ 7.71766209401476, 8.562291512017053 ], [ 7.717978514748771, 8.560705459346281 ], [ 7.718060347697221, 8.55945927046834 ], [ 7.718169458295152, 8.558714792049196 ] ] ] } },
{ "type": "Feature", "properties": { "fid": 49, "Road_ID": 49, "Road_Name": "Foot path", "Class": "unclassified", "Surface_Type": "Dirt/Gravel", "Length_Meters": 288.455, "Ownership": "Polytechnic" }, "geometry": { "type": "MultiLineString", "coordinates": [ [ [ 7.723253084503088, 8.564256698214995 ], [ 7.723210367919713, 8.564476369666661 ], [ 7.722392038435209, 8.564519527222259 ], [ 7.72227201677748, 8.564530316610394 ], [ 7.721704641668222, 8.564465580276989 ], [ 7.720820845824955, 8.564497948445068 ] ] ] } },
{ "type": "Feature", "properties": { "fid": 50, "Road_ID": 50, "Road_Name": "Foot path", "Class": "unclassified", "Surface_Type": "Dirt/Gravel", "Length_Meters": 38.655, "Ownership": "Polytechnic" }, "geometry": { "type": "MultiLineString", "coordinates": [ [ [ 7.723210367919713, 8.564476369666661 ], [ 7.723155812620749, 8.564821629974418 ] ] ] } },
{ "type": "Feature", "properties": { "fid": 51, "Road_ID": 51, "Road_Name": "Foot path", "Class": "unclassified", "Surface_Type": "Dirt/Gravel", "Length_Meters": 217.191, "Ownership": "Polytechnic" }, "geometry": { "type": "MultiLineString", "coordinates": [ [ [ 7.71737977034261, 8.566685490755134 ], [ 7.717645727425066, 8.566601873462815 ], [ 7.717973059218869, 8.56656950547376 ], [ 7.718093080876598, 8.566526348150735 ], [ 7.71828947995288, 8.566310561462133 ], [ 7.7184204126704, 8.566127142680573 ], [ 7.718562256447713, 8.566030038583939 ], [ 7.719064165198212, 8.56581425161378 ] ] ] } },
{ "type": "Feature", "properties": { "fid": 52, "Road_ID": 52, "Road_Name": "Foot path", "Class": "unclassified", "Surface_Type": "Dirt/Gravel", "Length_Meters": 141.415, "Ownership": "Polytechnic" }, "geometry": { "type": "MultiLineString", "coordinates": [ [ [ 7.718562256447713, 8.566030038583939 ], [ 7.718485879029161, 8.565825040965191 ], [ 7.71835494631164, 8.565706358082794 ], [ 7.717831215441556, 8.5657387261453 ], [ 7.717477969880749, 8.565822343627365 ] ] ] } },
{ "type": "Feature", "properties": { "fid": 53, "Road_ID": 53, "Road_Name": "Foot path", "Class": "unclassified", "Surface_Type": "Dirt/Gravel", "Length_Meters": 335.341, "Ownership": "Polytechnic" }, "geometry": { "type": "MultiLineString", "coordinates": [ [ [ 7.717885770740523, 8.568943150698425 ], [ 7.717853037561142, 8.5687381546499 ], [ 7.717820304381762, 8.568511579941383 ], [ 7.717820304381762, 8.568414476453546 ], [ 7.718016703458045, 8.568144744412788 ], [ 7.718016703458045, 8.568058430119345 ], [ 7.718082169816804, 8.567702383451781 ], [ 7.718300391012671, 8.567173707481979 ], [ 7.719031432018833, 8.566288982786537 ] ] ] } },
{ "type": "Feature", "properties": { "fid": 54, "Road_ID": 54, "Road_Name": "Foot path", "Class": "unclassified", "Surface_Type": "Dirt/Gravel", "Length_Meters": 27.136, "Ownership": "Polytechnic" }, "geometry": { "type": "MultiLineString", "coordinates": [ [ [ 7.717736840096856, 8.569577016966926 ], [ 7.717694827194136, 8.569595900537738 ], [ 7.717501155882804, 8.569647149444624 ] ] ] } },
{ "type": "Feature", "properties": { "fid": 55, "Road_ID": 55, "Road_Name": "Foot path", "Class": "unclassified", "Surface_Type": "Dirt/Gravel", "Length_Meters": 1050.861, "Ownership": "Polytechnic" }, "geometry": { "type": "MultiLineString", "coordinates": [ [ [ 7.718694387522002, 8.572706412119421 ], [ 7.718657728220902, 8.572886605801317 ], [ 7.718472240204414, 8.57311317790235 ], [ 7.718254019008545, 8.573361328143738 ], [ 7.718057619932265, 8.573900784631238 ], [ 7.718035797812678, 8.574310771049589 ], [ 7.718046708872471, 8.574742335222616 ], [ 7.718090353111644, 8.575173898905497 ], [ 7.718133997350818, 8.57559467302436 ], [ 7.718133997350818, 8.57567019653483 ], [ 7.717915776154949, 8.575993868552528 ], [ 7.717533889062177, 8.576544110349765 ], [ 7.71728293468693, 8.577191452620312 ], [ 7.717195646208582, 8.577871160817125 ], [ 7.717130179849822, 8.578540078807462 ], [ 7.716857403354986, 8.579392408088225 ], [ 7.716737381697259, 8.579640554228169 ], [ 7.716595537919944, 8.57988870020597 ], [ 7.71613727340862, 8.580266313339328 ], [ 7.715755386315849, 8.580611559304078 ], [ 7.715602631478743, 8.58077339324201 ], [ 7.715384410282871, 8.581172583327316 ] ] ] } },
{ "type": "Feature", "properties": { "fid": 56, "Road_ID": 56, "Road_Name": "Foot path", "Class": "unclassified", "Surface_Type": "Dirt/Gravel", "Length_Meters": 163.879, "Ownership": "Polytechnic" }, "geometry": { "type": "MultiLineString", "coordinates": [ [ [ 7.716595537919944, 8.57988870020597 ], [ 7.716693737458083, 8.580287891221323 ], [ 7.717021069251886, 8.580525247842317 ], [ 7.71713017984982, 8.58056840357566 ], [ 7.717370223165275, 8.581064694156458 ] ] ] } },
{ "type": "Feature", "properties": { "fid": 57, "Road_ID": 57, "Road_Name": "Foot path", "Class": "unclassified", "Surface_Type": "Dirt/Gravel", "Length_Meters": 149.618, "Ownership": "Polytechnic" }, "geometry": { "type": "MultiLineString", "coordinates": [ [ [ 7.721036339255885, 8.571753743270218 ], [ 7.721636447544511, 8.572967524424332 ] ] ] } },
{ "type": "Feature", "properties": { "fid": 58, "Road_ID": 58, "Road_Name": "Foot path", "Class": "unclassified", "Surface_Type": "Dirt/Gravel", "Length_Meters": 108.535, "Ownership": "Polytechnic" }, "geometry": { "type": "MultiLineString", "coordinates": [ [ [ 7.716126362348828, 8.570518379804668 ], [ 7.715679008897311, 8.570744953317314 ], [ 7.715493520880808, 8.570971526694922 ], [ 7.715318943924115, 8.57104705112412 ] ] ] } },
{ "type": "Feature", "properties": { "fid": 59, "Road_ID": 59, "Road_Name": "Foot path", "Class": "unclassified", "Surface_Type": "Dirt/Gravel", "Length_Meters": 76.781, "Ownership": "Polytechnic" }, "geometry": { "type": "MultiLineString", "coordinates": [ [ [ 7.71577720843545, 8.569450245712051 ], [ 7.715154596085992, 8.569763133787328 ] ] ] } },
{ "type": "Feature", "properties": { "fid": 60, "Road_ID": 60, "Road_Name": "Foot path", "Class": "unclassified", "Surface_Type": "Dirt/Gravel", "Length_Meters": 123.111, "Ownership": "Polytechnic" }, "geometry": { "type": "MultiLineString", "coordinates": [ [ [ 7.715752658550917, 8.568479212114868 ], [ 7.715362588163302, 8.568705786842663 ], [ 7.714799986642704, 8.569061832570753 ] ] ] } },
{ "type": "Feature", "properties": { "fid": 61, "Road_ID": 61, "Road_Name": "Foot path", "Class": "unclassified", "Surface_Type": "Dirt/Gravel", "Length_Meters": 335.839, "Ownership": "Polytechnic" }, "geometry": { "type": "MultiLineString", "coordinates": [ [ [ 7.713540441177784, 8.565458202845392 ], [ 7.713693196014892, 8.565717147437262 ], [ 7.713900506150968, 8.566019249238336 ], [ 7.714347859602499, 8.566698977413459 ], [ 7.714467929919429, 8.566876825840293 ], [ 7.714953423421034, 8.567877709503977 ], [ 7.715132773966404, 8.568026062254248 ] ] ] } },
{ "type": "Feature", "properties": { "fid": 64, "Road_ID": 64, "Road_Name": "Foot path", "Class": "unclassified", "Surface_Type": "Dirt/Gravel", "Length_Meters": 163.122, "Ownership": "Polytechnic" }, "geometry": { "type": "MultiLineString", "coordinates": [ [ [ 7.71768391613435, 8.562830984208054 ], [ 7.717311576218883, 8.564258558803495 ] ] ] } },
{ "type": "Feature", "properties": { "fid": 65, "Road_ID": 65, "Road_Name": "Foot path", "Class": "unclassified", "Surface_Type": "Dirt/Gravel", "Length_Meters": 162.66, "Ownership": "Polytechnic" }, "geometry": { "type": "MultiLineString", "coordinates": [ [ [ 7.713658112761967, 8.564373785602539 ], [ 7.713874592383954, 8.563708299225377 ], [ 7.714114635699408, 8.563373827328221 ], [ 7.714169190998377, 8.563017776275917 ] ] ] } },
{ "type": "Feature", "properties": { "fid": 66, "Road_ID": 66, "Road_Name": "Foot path", "Class": "unclassified", "Surface_Type": "Dirt/Gravel", "Length_Meters": 494.941, "Ownership": "Polytechnic" }, "geometry": { "type": "MultiLineString", "coordinates": [ [ [ 7.714954787303504, 8.564323295172136 ], [ 7.714900232004535, 8.564193822423846 ], [ 7.714671099748872, 8.564085928433288 ], [ 7.714529255971559, 8.563719088636518 ], [ 7.714300123715898, 8.563352248486055 ], [ 7.714169190998377, 8.563017776275913 ], [ 7.713929147682922, 8.562791198160081 ], [ 7.713732748606639, 8.562402778219045 ], [ 7.713252661975729, 8.561690673964121 ], [ 7.712697561808738, 8.560823469445221 ], [ 7.712623912155133, 8.560586100523283 ] ] ] } },
{ "type": "Feature", "properties": { "fid": 67, "Road_ID": 67, "Road_Name": "Foot path", "Class": "unclassified", "Surface_Type": "Dirt/Gravel", "Length_Meters": 298.732, "Ownership": "Polytechnic" }, "geometry": { "type": "MultiLineString", "coordinates": [ [ [ 7.718982332249765, 8.564104135546348 ], [ 7.719994333045591, 8.562717020771414 ], [ 7.720205889331408, 8.562004219055993 ], [ 7.720260444630374, 8.561766850870468 ] ] ] } },
{ "type": "Feature", "properties": { "fid": 69, "Road_ID": 69, "Road_Name": "Foot path", "Class": "unclassified", "Surface_Type": "Dirt/Gravel", "Length_Meters": 1037.089, "Ownership": "Polytechnic" }, "geometry": { "type": "MultiLineString", "coordinates": [ [ [ 7.721489910895385, 8.564183457620144 ], [ 7.721204695792419, 8.563654641892059 ], [ 7.720391377347898, 8.561917903369293 ], [ 7.720260444630374, 8.561766850870461 ], [ 7.719319602221277, 8.559648838884403 ], [ 7.719221559529632, 8.558820350712718 ], [ 7.718764137995191, 8.558042634322751 ], [ 7.718643613464412, 8.557323357889086 ], [ 7.718697254047395, 8.55659956000169 ], [ 7.718888301662126, 8.556141334987254 ], [ 7.719413188426933, 8.55573994536806 ] ] ] } },
{ "type": "Feature", "properties": { "fid": 70, "Road_ID": 70, "Road_Name": "Foot path", "Class": "unclassified", "Surface_Type": "Dirt/Gravel", "Length_Meters": 40.683, "Ownership": "Polytechnic" }, "geometry": { "type": "MultiLineString", "coordinates": [ [ [ 7.716509501187421, 8.565579536892164 ], [ 7.71642239112793, 8.565589444368353 ], [ 7.716153198251103, 8.565672673883832 ] ] ] } },
{ "type": "Feature", "properties": { "fid": 71, "Road_ID": 71, "Road_Name": "Foot path", "Class": "unclassified", "Surface_Type": "Dirt/Gravel", "Length_Meters": 128.428, "Ownership": "Polytechnic" }, "geometry": { "type": "MultiLineString", "coordinates": [ [ [ 7.716262145682872, 8.565642445370061 ], [ 7.7165554633279, 8.566766345238202 ] ] ] } },
{ "type": "Feature", "properties": { "fid": 72, "Road_ID": 72, "Road_Name": "Foot path", "Class": "unclassified", "Surface_Type": "Dirt/Gravel", "Length_Meters": 275.47, "Ownership": "Polytechnic" }, "geometry": { "type": "MultiLineString", "coordinates": [ [ [ 7.721385493169277, 8.570823175093905 ], [ 7.72130911575072, 8.570243254643506 ], [ 7.721270962138272, 8.569675335115733 ], [ 7.721358754623489, 8.569461492058377 ], [ 7.722467646668249, 8.569396800589672 ] ] ] } },
{ "type": "Feature", "properties": { "fid": 74, "Road_ID": 74, "Road_Name": "Foot path", "Class": "unclassified", "Surface_Type": "Dirt/Gravel", "Length_Meters": 325.316, "Ownership": "Polytechnic" }, "geometry": { "type": "MultiLineString", "coordinates": [ [ [ 7.718169458295152, 8.558714792049196 ], [ 7.718474075837394, 8.557475748760183 ], [ 7.718485257578791, 8.557195372756331 ], [ 7.718312473612877, 8.556786926722371 ], [ 7.718282321370888, 8.556613480565929 ], [ 7.718888301662126, 8.556141334987254 ] ] ] } },
{ "type": "Feature", "properties": { "fid": 75, "Road_ID": 75, "Road_Name": "Foot path", "Class": "unclassified", "Surface_Type": "Dirt/Gravel", "Length_Meters": 24.404, "Ownership": "Polytechnic" }, "geometry": { "type": "MultiLineString", "coordinates": [ [ [ 7.718485257578791, 8.557195372756331 ], [ 7.718654760967857, 8.557053178585416 ] ] ] } },
{ "type": "Feature", "properties": { "fid": 76, "Road_ID": 76, "Road_Name": "Foot path", "Class": "unclassified", "Surface_Type": "Dirt/Gravel", "Length_Meters": 41.664, "Ownership": "Polytechnic" }, "geometry": { "type": "MultiLineString", "coordinates": [ [ [ 7.719221559529632, 8.558820350712718 ], [ 7.719591042147348, 8.558901907600779 ] ] ] } },
{ "type": "Feature", "properties": { "fid": 77, "Road_ID": 77, "Road_Name": "Foot path", "Class": "unclassified", "Surface_Type": "Dirt/Gravel", "Length_Meters": 78.516, "Ownership": "Polytechnic" }, "geometry": { "type": "MultiLineString", "coordinates": [ [ [ 7.718219686675672, 8.558494589475206 ], [ 7.718434692110596, 8.558530990973757 ], [ 7.718884748019398, 8.558736418943983 ] ] ] } },
{ "type": "Feature", "properties": { "fid": 79, "Road_ID": 79, "Road_Name": "Foot path", "Class": "unclassified", "Surface_Type": "Dirt/Gravel", "Length_Meters": 275.214, "Ownership": "Polytechnic" }, "geometry": { "type": "MultiLineString", "coordinates": [ [ [ 7.722283080535217, 8.562322163585314 ], [ 7.72209939614361, 8.562412822928559 ], [ 7.721646815241987, 8.562961956257604 ], [ 7.721481853182032, 8.563277512901935 ], [ 7.721142577899619, 8.563640927717262 ], [ 7.721047086944886, 8.563859843907796 ], [ 7.720718080460019, 8.564215644556276 ] ] ] } },
{ "type": "Feature", "properties": { "fid": 82, "Road_ID": 82, "Road_Name": "Foot path", "Class": "unclassified", "Surface_Type": "Dirt/Gravel", "Length_Meters": 179.863, "Ownership": "Polytechnic" }, "geometry": { "type": "MultiLineString", "coordinates": [ [ [ 7.721783971142113, 8.564071317047084 ], [ 7.722410007213035, 8.563731792571183 ], [ 7.722785161709696, 8.563360847407827 ], [ 7.723113689692219, 8.563147798965691 ] ] ] } },
{ "type": "Feature", "properties": { "fid": 84, "Road_ID": 84, "Road_Name": "Foot path", "Class": "unclassified", "Surface_Type": "Dirt/Gravel", "Length_Meters": 272.106, "Ownership": "Polytechnic" }, "geometry": { "type": "MultiLineString", "coordinates": [ [ [ 7.724597408807497, 8.565197167724724 ], [ 7.724612418506566, 8.565304284269988 ], [ 7.724729870697152, 8.5654117389101 ], [ 7.72635324545707, 8.565519061612887 ], [ 7.726619680976894, 8.56549444754064 ], [ 7.726924278154627, 8.565546435505135 ] ] ] } },
{ "type": "Feature", "properties": { "fid": 85, "Road_ID": 85, "Road_Name": "Foot path", "Class": "unclassified", "Surface_Type": "Dirt/Gravel", "Length_Meters": 220.701, "Ownership": "Polytechnic" }, "geometry": { "type": "MultiLineString", "coordinates": [ [ [ 7.724704378956694, 8.565375965778136 ], [ 7.725035104033914, 8.565272539306342 ], [ 7.725206797024804, 8.565242515165588 ], [ 7.72546023181145, 8.56527649093853 ], [ 7.725678023915789, 8.5652466186275 ], [ 7.725954525321991, 8.565275571717075 ], [ 7.726369205480415, 8.565340669091048 ], [ 7.726504857049216, 8.565366608328247 ], [ 7.726619680976894, 8.56549444754064 ] ] ] } },
{ "type": "Feature", "properties": { "fid": 86, "Road_ID": 86, "Road_Name": "Foot path", "Class": "unclassified", "Surface_Type": "Dirt/Gravel", "Length_Meters": 46.207, "Ownership": "Polytechnic" }, "geometry": { "type": "MultiLineString", "coordinates": [ [ [ 7.724401788423686, 8.565042950568293 ], [ 7.724680916655632, 8.564730937069417 ] ] ] } },
{ "type": "Feature", "properties": { "fid": 87, "Road_ID": 87, "Road_Name": "Foot path", "Class": "unclassified", "Surface_Type": "Dirt/Gravel", "Length_Meters": 184.925, "Ownership": "Polytechnic" }, "geometry": { "type": "MultiLineString", "coordinates": [ [ [ 7.720820845824955, 8.564497948445068 ], [ 7.719885919521496, 8.564499439181198 ], [ 7.71918091683623, 8.564738806096493 ] ] ] } },
{ "type": "Feature", "properties": { "fid": 93, "Road_ID": 93, "Road_Name": "Foot path", "Class": "unclassified", "Surface_Type": "Dirt/Gravel", "Length_Meters": 188.255, "Ownership": "Polytechnic" }, "geometry": { "type": "MultiLineString", "coordinates": [ [ [ 7.713421297334378, 8.567039465375762 ], [ 7.712782122522138, 8.567060419678546 ], [ 7.712127458934533, 8.567060419678546 ], [ 7.711712838662383, 8.567092787625825 ] ] ] } },
{ "type": "Feature", "properties": { "fid": 94, "Road_ID": 94, "Road_Name": "Foot path", "Class": "unclassified", "Surface_Type": "Dirt/Gravel", "Length_Meters": 159.741, "Ownership": "Polytechnic" }, "geometry": { "type": "MultiLineString", "coordinates": [ [ [ 7.713531811200586, 8.56657892467082 ], [ 7.712081086930413, 8.566609965459648 ] ] ] } },
{ "type": "Feature", "properties": { "fid": 96, "Road_ID": 96, "Road_Name": "Foot path", "Class": "unclassified", "Surface_Type": "Dirt/Gravel", "Length_Meters": 213.612, "Ownership": "Polytechnic" }, "geometry": { "type": "MultiLineString", "coordinates": [ [ [ 7.712771211462345, 8.566132537351876 ], [ 7.712749389342758, 8.568063824763255 ] ] ] } },
{ "type": "Feature", "properties": { "fid": 97, "Road_ID": 97, "Road_Name": "Foot path", "Class": "unclassified", "Surface_Type": "Dirt/Gravel", "Length_Meters": 147.089, "Ownership": "Polytechnic" }, "geometry": { "type": "MultiLineString", "coordinates": [ [ [ 7.712040170456187, 8.566164905378118 ], [ 7.712127458934534, 8.567491992082447 ] ] ] } },
{ "type": "Feature", "properties": { "fid": 98, "Road_ID": 98, "Road_Name": "Foot path", "Class": "unclassified", "Surface_Type": "Dirt/Gravel", "Length_Meters": 45.361, "Ownership": "Polytechnic" }, "geometry": { "type": "MultiLineString", "coordinates": [ [ [ 7.712402963194316, 8.567063117007589 ], [ 7.71241387425411, 8.567473110800019 ] ] ] } },
{ "type": "Feature", "properties": { "fid": 99, "Road_ID": 99, "Road_Name": "Foot path", "Class": "unclassified", "Surface_Type": "Dirt/Gravel", "Length_Meters": 105.513, "Ownership": "Polytechnic" }, "geometry": { "type": "MultiLineString", "coordinates": [ [ [ 7.712760300402551, 8.567594490456408 ], [ 7.713341314336551, 8.567559425226317 ], [ 7.713374047515929, 8.567624161033184 ], [ 7.713414963990158, 8.56792356399661 ] ] ] } },
{ "type": "Feature", "properties": { "fid": 100, "Road_ID": 100, "Road_Name": "Foot path", "Class": "unclassified", "Surface_Type": "Dirt/Gravel", "Length_Meters": 172.818, "Ownership": "Polytechnic" }, "geometry": { "type": "MultiLineString", "coordinates": [ [ [ 7.720391377347898, 8.561917903369293 ], [ 7.72074053126129, 8.561367640406402 ], [ 7.720860552919021, 8.560925271565219 ], [ 7.72099148563654, 8.560655534214613 ], [ 7.721111507294272, 8.560558428721588 ] ] ] } },
{ "type": "Feature", "properties": { "fid": 103, "Road_ID": 103, "Road_Name": "Foot path", "Class": "unclassified", "Surface_Type": "Dirt/Gravel", "Length_Meters": 202.734, "Ownership": "Polytechnic" }, "geometry": { "type": "MultiLineString", "coordinates": [ [ [ 7.718550039990947, 8.568223276557866 ], [ 7.718700447824404, 8.568398969239972 ], [ 7.718813384333366, 8.568588617339925 ], [ 7.71891566645469, 8.568707946481469 ], [ 7.719007294188375, 8.568814490357848 ], [ 7.7191454, 8.5688793 ], [ 7.719192680533276, 8.569059541273523 ], [ 7.719341841960206, 8.569255582006059 ], [ 7.719522429709547, 8.569722674136914 ] ] ] } },
{ "type": "Feature", "properties": { "fid": 104, "Road_ID": 104, "Road_Name": "Foot path", "Class": "unclassified", "Surface_Type": "Dirt/Gravel", "Length_Meters": 211.155, "Ownership": "Polytechnic" }, "geometry": { "type": "MultiLineString", "coordinates": [ [ [ 7.718550039990947, 8.568223276557866 ], [ 7.71817944826891, 8.567789538267084 ], [ 7.718082169816804, 8.567702383451781 ], [ 7.718042539387762, 8.56760042288651 ], [ 7.717951444373457, 8.567266940553445 ], [ 7.717695739070149, 8.56685781206815 ], [ 7.717535923255581, 8.566636200805283 ] ] ] } },
{ "type": "Feature", "properties": { "fid": 105, "Road_ID": 105, "Road_Name": "Foot path", "Class": "unclassified", "Surface_Type": "Dirt/Gravel", "Length_Meters": 70.919, "Ownership": "Polytechnic" }, "geometry": { "type": "MultiLineString", "coordinates": [ [ [ 7.718042539387762, 8.56760042288651 ], [ 7.717906163225997, 8.567470972076711 ], [ 7.717627018269885, 8.567168387467794 ], [ 7.717597185984498, 8.56713748974364 ] ] ] } },
{ "type": "Feature", "properties": { "fid": 106, "Road_ID": 106, "Road_Name": "Foot path", "Class": "unclassified", "Surface_Type": "Dirt/Gravel", "Length_Meters": 56.373, "Ownership": "Polytechnic" }, "geometry": { "type": "MultiLineString", "coordinates": [ [ [ 7.714571536328262, 8.56793435328818 ], [ 7.71482704519865, 8.568040981815335 ], [ 7.714922934687391, 8.568070814100718 ], [ 7.714936374890123, 8.568204085478182 ] ] ] } },
{ "type": "Feature", "properties": { "fid": 108, "Road_ID": 108, "Road_Name": "Foot path", "Class": "unclassified", "Surface_Type": "Dirt/Gravel", "Length_Meters": 30.103, "Ownership": "Polytechnic" }, "geometry": { "type": "MultiLineString", "coordinates": [ [ [ 7.715278791234495, 8.567795930899663 ], [ 7.715132773966404, 8.568026062254251 ] ] ] } },
{ "type": "Feature", "properties": { "fid": 109, "Road_ID": 109, "Road_Name": "Foot path", "Class": "unclassified", "Surface_Type": "Dirt/Gravel", "Length_Meters": 841.041, "Ownership": "Polytechnic" }, "geometry": { "type": "MultiLineString", "coordinates": [ [ [ 7.724729870697152, 8.5654117389101 ], [ 7.724834711506896, 8.565509499312581 ], [ 7.724854954843408, 8.565592603536157 ], [ 7.724893310638905, 8.565665053372093 ], [ 7.724910357659126, 8.565757746544543 ], [ 7.724948713454622, 8.565865355859685 ], [ 7.725010508902919, 8.565947394644498 ], [ 7.725032883116959, 8.566032629745601 ], [ 7.725069108034928, 8.566091228877609 ], [ 7.725108529269188, 8.566160482397255 ], [ 7.725146885064684, 8.566230801355665 ], [ 7.725182044543886, 8.566307512946656 ], [ 7.725235316482076, 8.566490768414027 ], [ 7.725235316482076, 8.566631406330847 ], [ 7.725252363502296, 8.566812530920691 ], [ 7.725277934032627, 8.567021356918392 ], [ 7.72540152492923, 8.567545552790179 ], [ 7.725422833704505, 8.567630787891282 ], [ 7.725478236520222, 8.567707499482275 ], [ 7.725529377580884, 8.567929110745142 ], [ 7.725610350926932, 8.568112366212514 ], [ 7.725810653414523, 8.568333977475382 ], [ 7.725968338351564, 8.568615253309021 ], [ 7.726224043654869, 8.568858173347165 ], [ 7.726432869652572, 8.568998811263985 ], [ 7.726620386874998, 8.569169281466191 ], [ 7.726765286546873, 8.569356798688618 ], [ 7.726957065524354, 8.569672168562699 ], [ 7.72709344168612, 8.569919350355898 ], [ 7.727506831926469, 8.570388143411963 ], [ 7.727698610903951, 8.570673681000656 ], [ 7.727967101472425, 8.570976265609572 ], [ 7.728227068530789, 8.571342776544315 ], [ 7.728478512079042, 8.571807307845326 ] ] ] } },
{ "type": "Feature", "properties": { "fid": 110, "Road_ID": 110, "Road_Name": "Foot path", "Class": "unclassified", "Surface_Type": "Dirt/Gravel", "Length_Meters": 1876.817, "Ownership": "Polytechnic" }, "geometry": { "type": "MultiLineString", "coordinates": [ [ [ 7.705130487009404, 8.565417871578889 ], [ 7.704303706528706, 8.568507643993868 ], [ 7.703306455845804, 8.570987985435963 ], [ 7.703033703522275, 8.571797718896441 ], [ 7.702083332144974, 8.575931621299937 ], [ 7.701887291412437, 8.576562361048099 ], [ 7.701141484277786, 8.580099617743869 ], [ 7.700966752320524, 8.580730357492032 ], [ 7.700685476486885, 8.581770225725487 ] ] ] } },
{ "type": "Feature", "properties": { "fid": 112, "Road_ID": 112, "Road_Name": "Foot path", "Class": "unclassified", "Surface_Type": "Dirt/Gravel", "Length_Meters": 13.912, "Ownership": "Polytechnic" }, "geometry": { "type": "MultiLineString", "coordinates": [ [ [ 7.713421297334378, 8.567039465375762 ], [ 7.713545, 8.5670652 ] ] ] } },
{ "type": "Feature", "properties": { "fid": 115, "Road_ID": 4, "Road_Name": "New Administrative Raod", "Class": "service", "Surface_Type": "Asphalt", "Length_Meters": 1280.919, "Ownership": "Polytechnic" }, "geometry": { "type": "MultiLineString", "coordinates": [ [ [ 7.7164122, 8.5643121 ], [ 7.7164337, 8.5644076 ], [ 7.7164471, 8.5645455 ], [ 7.7165356, 8.5656303 ], [ 7.7165598, 8.5658239 ], [ 7.7166, 8.566044 ], [ 7.7166563, 8.5662721 ], [ 7.7167475, 8.566548 ], [ 7.717123, 8.5675399 ], [ 7.7176273, 8.5689589 ], [ 7.7176907, 8.5691368 ], [ 7.7178142, 8.5694831 ], [ 7.7179706, 8.5699217 ], [ 7.7180323, 8.57011 ], [ 7.7181101, 8.5703964 ], [ 7.718161, 8.5706166 ], [ 7.7185956, 8.5722185 ], [ 7.7186358, 8.572367 ], [ 7.7187967, 8.572932 ], [ 7.7188531, 8.5730831 ], [ 7.7189469, 8.5732715 ], [ 7.7190918, 8.5735579 ], [ 7.7195618, 8.5745538 ], [ 7.7195786, 8.5745797 ], [ 7.7199125, 8.5752872 ] ] ] } },
{ "type": "Feature", "properties": { "fid": 116, "Road_ID": 10, "Road_Name": "School of Engineering Raod", "Class": "service", "Surface_Type": "Asphalt", "Length_Meters": 330.421, "Ownership": "Polytechnic" }, "geometry": { "type": "MultiLineString", "coordinates": [ [ [ 7.721449340329619, 8.570856467716895 ], [ 7.72149065541537, 8.570865674860759 ] ], [ [ 7.721490659270295, 8.570865648647265 ], [ 7.7224016, 8.5707651 ], [ 7.7224331, 8.5707598 ], [ 7.722462, 8.5707452 ], [ 7.7224928, 8.570716 ], [ 7.722517, 8.5706829 ], [ 7.7225277, 8.5687971 ] ] ] } },
{ "type": "Feature", "properties": { "fid": 117, "Road_ID": 3, "Road_Name": "Old Gate Road", "Class": "residential", "Surface_Type": "Asphalt", "Length_Meters": 1855.903, "Ownership": "Polytechnic" }, "geometry": { "type": "MultiLineString", "coordinates": [ [ [ 7.7273914, 8.5643771 ], [ 7.7256954, 8.5648479 ], [ 7.7248558, 8.5650813 ], [ 7.7247271, 8.5651157 ], [ 7.7246359, 8.565121 ], [ 7.7245313, 8.5651025 ], [ 7.7244133, 8.5650521 ], [ 7.7242792, 8.5649539 ], [ 7.723614, 8.5644235 ], [ 7.723496, 8.5643439 ], [ 7.7233833, 8.5642856 ], [ 7.7232626, 8.5642405 ], [ 7.7231285, 8.564206 ], [ 7.7229756, 8.5641954 ], [ 7.7227423, 8.5641927 ], [ 7.7190489, 8.564259 ], [ 7.7179543, 8.5642811 ], [ 7.7164122, 8.5643121 ], [ 7.7136844, 8.5643625 ], [ 7.7136455, 8.5643771 ], [ 7.713608, 8.5644102 ], [ 7.7135852, 8.5644593 ], [ 7.7135718, 8.5645932 ], [ 7.7135718, 8.5647789 ], [ 7.7135691, 8.566044 ], [ 7.713545, 8.5670652 ] ] ] } },
{ "type": "Feature", "properties": { "fid": 118, "Road_ID": 80, "Road_Name": "Foot path", "Class": "unclassified", "Surface_Type": "Dirt/Gravel", "Length_Meters": 334.933, "Ownership": "Polytechnic" }, "geometry": { "type": "MultiLineString", "coordinates": [ [ [ 7.721757901104068, 8.56420888826427 ], [ 7.721924446015993, 8.563419183329509 ], [ 7.721848516529298, 8.563148715767067 ], [ 7.721485937628362, 8.562821217512235 ], [ 7.720634484007407, 8.561640664786962 ] ] ] } },
{ "type": "Feature", "properties": { "fid": 119, "Road_ID": 73, "Road_Name": "Foot path", "Class": "unclassified", "Surface_Type": "Dirt/Gravel", "Length_Meters": 471.298, "Ownership": "Polytechnic" }, "geometry": { "type": "MultiLineString", "coordinates": [ [ [ 7.722439622638562, 8.568797468292299 ], [ 7.722504879656319, 8.56830284388513 ], [ 7.722592119387159, 8.567972549708589 ], [ 7.722916120597205, 8.567626684808298 ], [ 7.723490028397112, 8.567227810415929 ], [ 7.723594857749958, 8.56702876812523 ], [ 7.723652382320936, 8.566598278683928 ], [ 7.723701468615251, 8.566295370075537 ], [ 7.723958989417435, 8.565961247650382 ], [ 7.724240893114783, 8.565523523358721 ], [ 7.724498067460394, 8.565293081414545 ] ] ] } },
{ "type": "Feature", "properties": { "fid": 121, "Road_ID": 62, "Road_Name": "Foot path", "Class": "unclassified", "Surface_Type": "Dirt/Gravel", "Length_Meters": 159.814, "Ownership": "Polytechnic" }, "geometry": { "type": "MultiLineString", "coordinates": [ [ [ 7.714462425730328, 8.567475808126137 ], [ 7.714762479874651, 8.5674973867344 ], [ 7.714863270116618, 8.567591366657018 ], [ 7.715012431543549, 8.567642507717679 ], [ 7.715170116480589, 8.567744789839002 ], [ 7.715278791234495, 8.567795930899663 ], [ 7.715406643886149, 8.567766098614278 ], [ 7.715800856228751, 8.567896082143459 ] ] ] } },
{ "type": "Feature", "properties": { "fid": 122, "Road_ID": 95, "Road_Name": "Road to Foundation Academy", "Class": "unclassified", "Surface_Type": "Dirt/Gravel", "Length_Meters": 2089.663, "Ownership": "Polytechnic" }, "geometry": { "type": "MultiLineString", "coordinates": [ [ [ 7.712913055239659, 8.567966721161081 ], [ 7.712749389342758, 8.568063824763255 ], [ 7.711952881977839, 8.568743549284161 ], [ 7.711298218390233, 8.569056437940981 ], [ 7.711145463553125, 8.569196698289767 ], [ 7.710818131759322, 8.569455640336205 ], [ 7.710649459805818, 8.569547512227324 ], [ 7.710393754502509, 8.569615700308205 ], [ 7.710018720057657, 8.569820264550852 ], [ 7.709396503819606, 8.570348722177691 ], [ 7.708995898844421, 8.570723756622543 ], [ 7.708552676318686, 8.571149932128058 ], [ 7.708245829954715, 8.571345972860595 ], [ 7.707734419348098, 8.571627248694236 ], [ 7.707086632579715, 8.572155706321073 ], [ 7.706430322301222, 8.572428458644602 ], [ 7.705970052755267, 8.572513693745705 ], [ 7.705577971290193, 8.572377317583941 ], [ 7.705296695456553, 8.572309129503058 ], [ 7.70489609048137, 8.572121612280633 ], [ 7.704589244117399, 8.571951142078426 ], [ 7.704205686162435, 8.571593154653794 ], [ 7.703694275555818, 8.571098791067396 ], [ 7.703214117819605, 8.57082319757383 ], [ 7.702736801253428, 8.570698186092212 ], [ 7.701804897481369, 8.570629998011331 ], [ 7.700872993709311, 8.570482257169418 ], [ 7.700395677143134, 8.570379975048095 ], [ 7.699668337613722, 8.570107222724566 ], [ 7.698912586383942, 8.570021987623466 ], [ 7.698457999178061, 8.570016305283394 ], [ 7.698293211315928, 8.570039034643687 ] ], [ [ 7.712760300402551, 8.56786961753412 ], [ 7.712913055239659, 8.567966721161081 ] ], [ [ 7.714953423421034, 8.567877709503973 ], [ 7.714735202225163, 8.567918169350699 ], [ 7.714571536328262, 8.56793435328818 ], [ 7.714446059140638, 8.567875012180709 ], [ 7.713813217672617, 8.56793974793386 ], [ 7.713414963990158, 8.567923563996608 ], [ 7.712913055239659, 8.567966721161081 ] ] ] } },
{ "type": "Feature", "properties": { "fid": 123, "Road_ID": 48, "Road_Name": "Foot path", "Class": "unclassified", "Surface_Type": "Dirt/Gravel", "Length_Meters": 605.835, "Ownership": "Polytechnic" }, "geometry": { "type": "MultiLineString", "coordinates": [ [ [ 7.721311843515659, 8.568824468789062 ], [ 7.721290021396072, 8.568565526312801 ], [ 7.721366398814626, 8.568349740781214 ], [ 7.721475509412562, 8.568177112267781 ], [ 7.721682819548636, 8.567896590766319 ], [ 7.721781019086775, 8.567659226257311 ], [ 7.72185739650533, 8.567313968525177 ], [ 7.721781019086775, 8.567108971598437 ], [ 7.721715552728015, 8.566817659986146 ], [ 7.721704641668222, 8.566526348150733 ], [ 7.721693730608429, 8.566137932023111 ], [ 7.721704641668222, 8.565878987717678 ], [ 7.722119261940374, 8.564918734379518 ], [ 7.72227201677748, 8.564530316610394 ], [ 7.722392038435209, 8.564519527222259 ], [ 7.722392038435209, 8.564239003023312 ], [ 7.722410007213035, 8.563731792571183 ] ] ] } },
{ "type": "Feature", "properties": { "fid": 125, "Road_ID": 11, "Road_Name": "New Gate Road", "Class": "unclassified", "Surface_Type": "Asphalt", "Length_Meters": 1656.529, "Ownership": "Polytechnic" }, "geometry": { "type": "MultiLineString", "coordinates": [ [ [ 7.7195786, 8.5745797 ], [ 7.7196061, 8.5745949 ], [ 7.719641, 8.5746009 ], [ 7.7196866, 8.5746009 ], [ 7.7215648, 8.5745551 ], [ 7.7234423, 8.5744703 ], [ 7.725234, 8.5743748 ], [ 7.7259368, 8.574327 ], [ 7.7267951, 8.5742581 ], [ 7.7276641, 8.5741626 ], [ 7.7290749, 8.5738815 ], [ 7.7314675, 8.5733935 ], [ 7.734498743166049, 8.572962101878446 ] ] ] } },
{ "type": "Feature", "properties": { "fid": 126, "Road_ID": 29, "Road_Name": "Nasrawa-Keffi Road", "Class": "primary", "Surface_Type": "Asphalt", "Length_Meters": 10725.512, "Ownership": "Federal Government" }, "geometry": { "type": "MultiLineString", "coordinates": [ [ [ 7.7250914, 8.5627342 ], [ 7.7249847, 8.56263 ], [ 7.7245568, 8.5621676 ], [ 7.7238024, 8.5612232 ], [ 7.7226779, 8.5598251 ], [ 7.7221855, 8.5591991 ], [ 7.7220165, 8.5589912 ], [ 7.7217833, 8.5587042 ], [ 7.7214663, 8.5583142 ], [ 7.7213673, 8.5581906 ], [ 7.7207801, 8.5574501 ], [ 7.7201441, 8.5566636 ], [ 7.7198007, 8.556239 ], [ 7.7196674, 8.5560753 ], [ 7.7194175, 8.5557715 ], [ 7.7191165, 8.5553901 ], [ 7.7188213, 8.5550086 ], [ 7.7187888, 8.5549651 ], [ 7.7185577, 8.5546828 ] ], [ [ 7.7186412, 8.5546785 ], [ 7.7188494, 8.5549161 ], [ 7.7188972, 8.5549736 ], [ 7.7191795, 8.5553364 ], [ 7.7194848, 8.5557333 ], [ 7.7197328, 8.5560297 ], [ 7.7198652, 8.5561901 ], [ 7.7202116, 8.5566194 ], [ 7.7208341, 8.5573909 ], [ 7.7214189, 8.5581306 ], [ 7.7215355, 8.5582743 ], [ 7.7218523, 8.5586695 ], [ 7.7220802, 8.5589536 ], [ 7.7222439, 8.5591503 ], [ 7.7227494, 8.5597667 ], [ 7.7231438, 8.5602499 ], [ 7.7238797, 8.5611699 ], [ 7.7246135, 8.5621348 ], [ 7.7250289, 8.5625908 ], [ 7.7251301, 8.5626909 ] ], [ [ 7.7271023, 8.5641981 ], [ 7.7269248, 8.5641229 ], [ 7.7261822, 8.5636331 ], [ 7.7256194, 8.5632044 ], [ 7.7253021, 8.5629358 ], [ 7.7250914, 8.5627342 ] ], [ [ 7.7250914, 8.5627342 ], [ 7.7251301, 8.5626909 ] ], [ [ 7.7251301, 8.5626909 ], [ 7.7253359, 8.5628947 ], [ 7.7256595, 8.5631675 ], [ 7.7262332, 8.5635847 ], [ 7.7267498, 8.563938 ], [ 7.7269681, 8.5640827 ], [ 7.7271023, 8.5641981 ] ], [ [ 7.738457315137116, 8.577758090188105 ], [ 7.738351, 8.577638 ], [ 7.73753, 8.576398 ], [ 7.73373, 8.569823 ], [ 7.733186, 8.568923 ], [ 7.732616, 8.568098 ], [ 7.7323151, 8.5677442 ], [ 7.7319139, 8.5673513 ], [ 7.7311448, 8.5667864 ], [ 7.7302852, 8.5662285 ], [ 7.7285365, 8.5650937 ], [ 7.7273914, 8.5643771 ], [ 7.7271023, 8.5641981 ] ], [ [ 7.730715493323493, 8.566508444646539 ], [ 7.732350907000319, 8.567873642738626 ], [ 7.735935979916867, 8.573815202380265 ], [ 7.738082822111368, 8.577360062665287 ], [ 7.738457315137116, 8.577758090188105 ] ], [ [ 7.738457315137116, 8.577758090188105 ], [ 7.740891323395238, 8.580345060334112 ] ], [ [ 7.740891323395238, 8.580345060334112 ], [ 7.738953, 8.578318 ], [ 7.738457315137116, 8.577758090188105 ] ], [ [ 7.76135569588726, 8.603205122116366 ], [ 7.756926, 8.59871 ], [ 7.75635, 8.598013 ], [ 7.755871, 8.597301 ], [ 7.75348, 8.592183 ], [ 7.752938, 8.591211 ], [ 7.75244, 8.590558 ], [ 7.751543, 8.589696 ], [ 7.746296, 8.585491 ], [ 7.744545, 8.584041 ], [ 7.741465, 8.580945 ], [ 7.740891323395238, 8.580345060334112 ] ], [ [ 7.740891323395238, 8.580345060334112 ], [ 7.741854307732288, 8.581368562092049 ] ] ] } }
]
}
